ONEWEB-0371             
1 49297U 21090U   25228.63379966  .00000052  00000+0  97315-4 0  9996
2 49297  87.9259   5.5094 0001723  94.4674 265.6655 13.19726346186285
ONEWEB-0372             
1 49298U 21090V   25228.54328469  .00000085  00000+0  17608-3 0  9991
2 49298  87.9291 335.1559 0001945  95.9828 264.1527 13.20771200189627
ONEWEB-0373             
1 49299U 21090W   25228.57024203  .00000032  00000+0  47631-4 0  9996
2 49299  87.9298 335.1627 0001907 102.3826 257.7521 13.20772075190816
ONEWEB-0374             
1 49300U 21090X   25228.57149061  .00000256  00000+0  65659-3 0  9996
2 49300  87.9079 350.3229 0002447 100.9890 259.1515 13.14502822187547
ONEWEB-0375             
1 49301U 21090Y   25228.55765414  .00016466  00000+0  40440-1 0  9990
2 49301  87.9300 335.1444 0002167 140.4777 219.6514 13.20692802190311
ONEWEB-0376             
1 49302U 21090Z   25228.63223607  .00000011  00000+0 -37509-5 0  9999
2 49302  87.9256   5.4913 0001824  88.4065 271.7277 13.19725293186285
ONEWEB-0377             
1 49303U 21090AA  25228.54356289  .00000098  00000+0  20804-3 0  9995
2 49303  87.9300 335.1405 0001827 106.6451 253.4883 13.20770968190309
ONEWEB-0378             
1 49304U 21090AB  25228.56564840  .00000118  00000+0  25882-3 0  9996
2 49304  87.9312 335.1468 0002036 101.5673 258.5689 13.20772673189577
